NORAD_CAT_ID,OBJECT_NAME,OBJECT_TYPE,EPOCH,MEAN_MOTION,ECCENTRICITY,INCLINATION,RA_OF_ASC_NODE,ARG_OF_PERICENTER,MEAN_ANOMALY,BSTAR,MEAN_MOTION_DOT,MEAN_MOTION_DDOT,TLE_LINE0,TLE_LINE1,TLE_LINE2,SEMIMAJOR_AXIS,PERIOD,APOGEE,PERIGEE,DECAYED
49456.0,STARLINK-3124,PAYLOAD,2022-05-22 14:00:01,15.08841624,0.0002393,53.2202,326.0826,27.0479,234.0037,-0.0018728,-0.00029973,0.0,0 STARLINK-3124,1 49456U 21104BA  22142.58334491 -.00029973  00000-0 -18728-2 0  9994,2 49456  53.2202 326.0826 0002393  27.0479 234.0037 15.08841624  1309,6917.875,95.437,541.396,538.085,0.0
49456.0,STARLINK-3124,PAYLOAD,2022-05-22 22:00:01,15.0880522,0.0002656,53.22,324.5879,25.0225,247.6882,0.003677,0.00058665,0.0,0 STARLINK-3124,1 49456U 21104BA  22142.91668981  .00058665  00000-0  36770-2 0  9990,2 49456  53.2200 324.5879 0002656  25.0225 247.6882 15.08805220  1307,6917.986999999999,95.44,541.689,538.014,0.0
49456.0,STARLINK-3124,PAYLOAD,2022-05-23 14:00:01,15.08845548,0.0002403,53.2191,321.5919,27.0014,268.8209,-0.0004875,-8.04e-05,0.0,0 STARLINK-3124,1 49456U 21104BA  22143.58334491 -.00008040  00000-0 -48750-3 0  9996,2 49456  53.2191 321.5919 0002403  27.0014 268.8209 15.08845548 30594,6917.863,95.437,541.391,538.066,0.0
49456.0,STARLINK-3124,PAYLOAD,2022-05-23 22:00:01,15.08825707,0.0002643,53.2193,320.0993,24.8051,282.68,0.0026211,0.00041659,0.0,0 STARLINK-3124,1 49456U 21104BA  22143.91668981  .00041659  00000-0  26211-2 0  9995,2 49456  53.2193 320.0993 0002643  24.8051 282.6800 15.08825707  1307,6917.924,95.438,541.617,537.961,0.0
49456.0,STARLINK-3124,PAYLOAD,2022-05-24 14:00:01,15.0886144,0.0002469,53.2191,317.1055,29.3034,301.2897,-0.0031851,-0.00050655,0.0,0 STARLINK-3124,1 49456U 21104BA  22144.58334491 -.00050655  00000-0 -31851-2 0  9999,2 49456  53.2191 317.1055 0002469  29.3034 301.2897 15.08861440  1306,6917.815,95.436,541.388,537.972,0.0
49456.0,STARLINK-3124,PAYLOAD,2022-05-24 22:00:00,15.08795488,0.0002669,53.2187,315.6106,25.5514,316.6486,0.0036014,0.00057427,0.0,0 STARLINK-3124,1 49456U 21104BA  22144.91667824  .00057427  00000-0  36014-2 0  9993,2 49456  53.2187 315.6106 0002669  25.5514 316.6486 15.08795488 30791,6918.016,95.44,541.7280000000002,538.035,0.0
49456.0,STARLINK-3124,PAYLOAD,2022-05-25 12:00:00,15.08845036,0.0002465,53.2185,312.9902,29.7732,242.6791,0.0010199,0.00015983,0.0,0 STARLINK-3124,1 49456U 21104BA  22145.50001157  .00015983  00000-0  10199-2 0  9997,2 49456  53.2185 312.9902 0002465  29.7732 242.6791 15.08845036 30887,6917.865,95.437,541.435,538.025,0.0
49456.0,STARLINK-3124,PAYLOAD,2022-05-25 14:00:01,15.08863194,0.0002517,53.2186,312.6166,28.4212,336.9275,-0.0013091,-0.00021077,0.0,0 STARLINK-3124,1 49456U 21104BA  22145.58334491 -.00021077  00000-0 -13091-2 0  9992,2 49456  53.2186 312.6166 0002517  28.4212 336.9275 15.08863194  1308,6917.809,95.436,541.4159999999998,537.933,0.0
49456.0,STARLINK-3124,PAYLOAD,2022-05-25 18:44:46,15.08837261,0.0002626,53.2209,311.7287,31.2079,328.9069,0.0001261,1.719e-05,0.0,0 STARLINK-3124,1 49456U 21104BA  22145.78109793  .00001719  00000-0  12610-3 0  9995,2 49456  53.2209 311.7287 0002626  31.2079 328.9069 15.08837261 29850,6917.889,95.438,541.57,537.937,0.0
49456.0,STARLINK-3124,PAYLOAD,2022-05-26 06:00:00,15.08814829,0.000247,53.2183,309.6232,24.4463,4.1215,0.0007907999999999,0.00012311,0.0,0 STARLINK-3124,1 49456U 21104BA  22146.25001157  .00012311  00000-0  79080-3 0  9997,2 49456  53.2183 309.6232 0002470  24.4463   4.1215 15.08814829 31006,6917.956999999999,95.439,541.531,538.114,0.0
49456.0,STARLINK-3124,PAYLOAD,2022-05-26 10:38:38,15.08842582,0.0002707,53.2203,308.7551,32.3135,327.8023,4.0675e-05,3.59e-06,0.0,0 STARLINK-3124,1 49456U 21104BA  22146.44349717  .00000359  00000-0  40675-4 0  9993,2 49456  53.2203 308.7551 0002707  32.3135 327.8023 15.08842582 29950,6917.871999999999,95.437,541.61,537.865,0.0
49456.0,STARLINK-3124,PAYLOAD,2022-05-26 22:00:00,15.08827068,0.0002727,53.2183,306.6323,21.683000000000003,30.0418,0.00036754,5.564e-05,0.0,0 STARLINK-3124,1 49456U 21104BA  22146.91667824  .00005564  00000-0  36754-3 0  9992,2 49456  53.2183 306.6323 0002727  21.6830  30.0418 15.08827068  1308,6917.92,95.438,541.6709999999998,537.898,0.0
49456.0,STARLINK-3124,PAYLOAD,2022-05-27 13:40:11,15.08842493,0.0002598,53.2199,303.6984,31.6012,328.5135,0.00018395,2.641e-05,0.0,0 STARLINK-3124,1 49456U 21104BA  22147.56957445  .00002641  00000-0  18395-3 0  9999,2 49456  53.2199 303.6984 0002598  31.6012 328.5135 15.08842493 30126,6917.873000000001,95.437,541.535,537.941,0.0
49456.0,STARLINK-3124,PAYLOAD,2022-05-27 14:00:01,15.08854357,0.0002716,53.2187,303.6383,28.9795,45.9373,-0.0023424,-0.00037392,0.0,0 STARLINK-3124,1 49456U 21104BA  22147.58334491 -.00037392  00000-0 -23424-2 0  9992,2 49456  53.2187 303.6383 0002716  28.9795  45.9373 15.08854357 31201,6917.837,95.437,541.58,537.823,0.0
49456.0,STARLINK-3124,PAYLOAD,2022-05-27 22:00:01,15.08821811,0.0002898999999999,53.2186,302.1429,26.5596,60.0184,0.002707,0.00043038,0.0,0 STARLINK-3124,1 49456U 21104BA  22147.91668981  .00043038  00000-0  27070-2 0  9996,2 49456  53.2186 302.1429 0002899  26.5596  60.0184 15.08821811  1305,6917.936,95.439,541.806,537.795,0.0
49456.0,STARLINK-3124,PAYLOAD,2022-05-28 04:00:00,15.0885945,0.0002726,53.219,301.0191,27.8566,337.3540000000001,-0.00276,-0.00043972,0.0,0 STARLINK-3124,1 49456U 21104BA  22148.16667824 -.00043972  00000-0 -27600-2 0  9997,2 49456  53.2190 301.0191 0002726  27.8566 337.3540 15.08859450 31280,6917.821,95.436,541.572,537.8,0.0
49456.0,STARLINK-3124,PAYLOAD,2022-05-28 13:30:58,15.08836334,0.0002777,53.2217,299.2409,26.6175,333.4959,7.9103e-05,9.71e-06,0.0,0 STARLINK-3124,1 49456U 21104BA  22148.56317926  .00000971  00000-0  79103-4 0  9993,2 49456  53.2217 299.2409 0002777  26.6175 333.4959 15.08836334 30274,6917.892,95.438,541.678,537.835,0.0
49456.0,STARLINK-3124,PAYLOAD,2022-05-28 14:00:01,15.08852705,0.0002763,53.2193,299.1491,28.1258,81.5807,-0.00097182,-0.00015728,0.0,0 STARLINK-3124,1 49456U 21104BA  22148.58334491 -.00015728  00000-0 -97182-3 0  9995,2 49456  53.2193 299.1491 0002763  28.1258  81.5807 15.08852705 31354,6917.842,95.437,541.618,537.795,0.0
49456.0,STARLINK-3124,PAYLOAD,2022-05-28 22:00:00,15.08853675,0.0002918999999999,53.2191,297.6537,25.2524,96.0634,0.00086748,0.0001355,0.0,0 STARLINK-3124,1 49456U 21104BA  22148.91667824  .00013550  00000-0  86748-3 0  9996,2 49456  53.2191 297.6537 0002919  25.2524  96.0634 15.08853675  1301,6917.839,95.437,541.7230000000002,537.684,0.0
49456.0,STARLINK-3124,PAYLOAD,2022-05-29 04:00:00,15.08849976,0.0002699,53.2195,296.5299,26.9567,13.0751,-0.00075741,-0.00012326,0.0,0 STARLINK-3124,1 49456U 21104BA  22149.16667824 -.00012326  00000-0 -75741-3 0  9997,2 49456  53.2195 296.5299 0002699  26.9567  13.0751 15.08849976 31444,6917.85,95.437,541.582,537.8480000000002,0.0
49456.0,STARLINK-3124,PAYLOAD,2022-05-29 13:21:45,15.08845735,0.0002782,53.2202,294.7799,28.549,331.5654,2.9085e-06,-2.42e-06,0.0,0 STARLINK-3124,1 49456U 21104BA  22149.55677397 -.00000242  00000-0  29085-5 0  9991,2 49456  53.2202 294.7799 0002782  28.5490 331.5654 15.08845735 30420,6917.863,95.437,541.6519999999998,537.803,0.0
49456.0,STARLINK-3124,PAYLOAD,2022-05-29 19:43:18,15.08842433,0.0002752,53.2216,293.5911,26.3876,333.7256,-6.5927e-05,-1.338e-05,0.0,0 STARLINK-3124,1 49456U 21104BA  22149.82173721 -.00001338  00000-0 -65927-4 0  9995,2 49456  53.2216 293.5911 0002752  26.3876 333.7256 15.08842433 30467,6917.873000000001,95.437,541.6419999999998,537.8340000000002,0.0
49456.0,STARLINK-3124,PAYLOAD,2022-05-29 20:00:01,15.08788646,0.0002888,53.2196,293.539,26.4871,36.7259,0.0019902,0.00031485,0.0,0 STARLINK-3124,1 49456U 21104BA  22149.83334491  .00031485  00000-0  19902-2 0  9993,2 49456  53.2196 293.5390 0002888  26.4871  36.7259 15.08788646 31549,6918.0369999999975,95.441,541.9,537.904,0.0
49456.0,STARLINK-3124,PAYLOAD,2022-05-30 14:00:01,15.08829499,0.0002762,53.2198,290.1717,28.5202,150.6872,-0.001061,-0.00017131,0.0,0 STARLINK-3124,1 49456U 21104BA  22150.58334491 -.00017131  00000-0 -10610-2 0  9998,2 49456  53.2198 290.1717 0002762  28.5202 150.6872 15.08829499 31650,6917.9119999999975,95.438,541.688,537.867,0.0
49456.0,STARLINK-3124,PAYLOAD,2022-05-30 22:00:00,15.08823095,0.0002877,53.2193,288.6759,27.1013,163.6783,0.001137,0.00017846,0.0,0 STARLINK-3124,1 49456U 21104BA  22150.91667824  .00017846  00000-0  11370-2 0  9999,2 49456  53.2193 288.6759 0002877  27.1013 163.6783 15.08823095  1305,6917.932,95.439,541.7869999999998,537.807,0.0
49456.0,STARLINK-3124,PAYLOAD,2022-05-31 04:00:00,15.0881805,0.0002652,53.2196,287.5524,29.2308,80.2374,0.0016119,0.00025444,0.0,0 STARLINK-3124,1 49456U 21104BA  22151.16667824  .00025444  00000-0  16119-2 0  9996,2 49456  53.2196 287.5524 0002652  29.2308  80.2374 15.08818050 31743,6917.946999999999,95.439,541.6469999999998,537.9780000000002,0.0
49456.0,STARLINK-3124,PAYLOAD,2022-05-31 06:00:02,15.08810817,0.0002637,53.2194,287.178,29.8407,172.5878,0.0030265,0.00048171,0.0,0 STARLINK-3124,1 49456U 21104BA  22151.25002315  .00048171  00000-0  30265-2 0  9994,2 49456  53.2194 287.1780 0002637  29.8407 172.5878 15.08810817  1306,6917.97,95.439,541.659,538.01,0.0
49456.0,STARLINK-3124,PAYLOAD,2022-05-31 22:00:00,15.08851428,0.0002869,53.219,284.1874,28.8292,196.7133,0.00042815,6.535e-05,0.0,0 STARLINK-3124,1 49456U 21104BA  22151.91667824  .00006535  00000-0  42815-3 0  9992,2 49456  53.2190 284.1874 0002869  28.8292 196.7133 15.08851428  1306,6917.845,95.437,541.695,537.726,0.0
49456.0,STARLINK-3124,PAYLOAD,2022-06-01 06:00:00,15.08835612,0.0002656,53.219,282.6895,31.6718,205.4875,0.0030624,0.00048783,0.0,0 STARLINK-3124,1 49456U 21104BA  22152.25001157  .00048783  00000-0  30624-2 0  9996,2 49456  53.2190 282.6895 0002656  31.6718 205.4875 15.08835612 31908,6917.894,95.438,541.596,537.9209999999998,0.0
